     3.03           N: GNSS NAV DATA    R: GLONASS          RINEX VERSION / TYPE
sbf2rin-13.0.0x                         20210102 001108 UTC PGM / RUN BY / DATE 
                                                            COMMENT             
ABPO                                    MARKER NAME         COMMENT
33302M001                               MARKER NUMBER       COMMENT
  4097216.5539  4429119.1897 -2065771.1988                  COMMENT
                                                            END OF HEADER       
R12 2021 01 01 17 45 00 1.931153237820E-04 3.637978807092E-12 4.950000000000E+05
     1.091575537109E+04 4.830245971680E-01-2.793967723846E-09 0.000000000000E+00
     2.160612646484E+04 1.007085800171E+00 1.862645149231E-09-1.000000000000E+00
     8.111305664062E+03-3.340045928955E+00 9.313225746155E-10 0.000000000000E+00
R17 2021 01 01 17 45 00 3.875065594912E-04 2.728484105319E-12 4.950000000000E+05
     1.817965820312E+04 2.366316795349E+00 0.000000000000E+00 0.000000000000E+00
    -4.003076660156E+03 3.867635726929E-01-3.725290298462E-09 4.000000000000E+00
    -1.744392333984E+04 2.371424674988E+00-0.000000000000E+00 0.000000000000E+00
R02 2021 01 01 17 45 00 4.610875621438E-04 9.094947017729E-13 4.950000000000E+05
     1.671302001953E+04-1.804939270020E+00 9.313225746155E-10 0.000000000000E+00
    -5.138643554688E+03 1.797368049622E+00-3.725290298462E-09-4.000000000000E+00
    -1.851102197266E+04-2.130298614502E+00-0.000000000000E+00 0.000000000000E+00
R08 2021 01 01 17 45 00-5.660671740770E-05-0.000000000000E+00 4.950000000000E+05
    -9.567327148438E+03-1.129017829895E+00-9.313225746155E-10 0.000000000000E+00
     1.962203515625E+04 1.422058105469E+00 1.862645149231E-09 6.000000000000E+00
    -1.316666455078E+04 2.926898956299E+00 3.725290298462E-09 0.000000000000E+00
R10 2021 01 01 17 45 00-6.518606096506E-05 0.000000000000E+00 4.950000000000E+05
    -7.304642578125E+03-8.778972625732E-01 0.000000000000E+00 0.000000000000E+00
     1.106699755859E+04-2.850795745850E+00-0.000000000000E+00-7.000000000000E+00
    -2.181495019531E+04-1.145758628845E+00 2.793967723846E-09 0.000000000000E+00
R12 2021 01 01 18 15 00 1.931218430400E-04 3.637978807092E-12 4.968000000000E+05
     1.161809472656E+04 2.560806274414E-01-2.793967723846E-09 0.000000000000E+00
     2.265080957031E+04 1.576747894287E-01 1.862645149231E-09-1.000000000000E+00
     1.863853027344E+03-3.556611061096E+00 1.862645149231E-09 0.000000000000E+00
R11 2021 01 01 18 15 00 5.005858838558E-06-9.094947017729E-13 4.968000000000E+05
     1.887022460938E+03-7.951345443726E-01-9.313225746155E-10 4.000000000000E+00
     2.033988085938E+04-1.940179824829E+00 0.000000000000E+00 0.000000000000E+00
    -1.526320117188E+04-2.682610511780E+00 2.793967723846E-09 0.000000000000E+00
R24 2021 01 01 18 15 00 2.619903534651E-05 1.818989403546E-12 4.968000000000E+05
     2.464776074219E+04-5.872135162354E-01-1.862645149231E-09 0.000000000000E+00
     4.864571289062E+03-2.450809478760E-01-9.313225746155E-10 2.000000000000E+00
     4.486074218750E+03 3.509294509888E+00-9.313225746155E-10 0.000000000000E+00
R01 2021 01 01 18 15 00 7.286109030247E-05 0.000000000000E+00 4.968000000000E+05
    -3.393012695312E+02-1.388792991638E+00-0.000000000000E+00 0.000000000000E+00
     1.696132714844E+04 2.207511901855E+00 0.000000000000E+00 1.000000000000E+00
    -1.904994238281E+04 1.991571426392E+00 3.725290298462E-09 0.000000000000E+00
R17 2021 01 01 18 15 00 3.875130787492E-04 2.728484105319E-12 4.968000000000E+05
     2.190405175781E+04 1.732841491699E+00-0.000000000000E+00 0.000000000000E+00
    -3.704543945312E+03-2.895259857178E-02-3.725290298462E-09 4.000000000000E+00
    -1.255653369141E+04 3.023694038391E+00-0.000000000000E+00 0.000000000000E+00
R23 2021 01 01 18 15 00 3.566481173038E-04 1.818989403546E-12 4.968000000000E+05
     1.735210009766E+04-2.209581375122E+00-2.793967723846E-09 0.000000000000E+00
     9.114529785156E+03-4.018087387085E-01 9.313225746155E-10 3.000000000000E+00
     1.632472607422E+04 2.572727203369E+00-9.313225746155E-10 0.000000000000E+00
R02 2021 01 01 18 15 00 4.610894247890E-04 9.094947017729E-13 4.968000000000E+05
     1.346140917969E+04-1.763734817505E+00 0.000000000000E+00 0.000000000000E+00
    -1.354032714844E+03 2.384526252747E+00-3.725290298462E-09-4.000000000000E+00
    -2.157658007812E+04-1.253732681274E+00 9.313225746155E-10 0.000000000000E+00
R08 2021 01 01 18 15 00-5.660764873028E-05-0.000000000000E+00 4.968000000000E+05
    -1.098979199219E+04-4.652137756348E-01-9.313225746155E-10 0.000000000000E+00
     2.177534570312E+04 9.294557571411E-01 2.793967723846E-09 6.000000000000E+00
    -7.456699218750E+03 3.376163482666E+00 3.725290298462E-09 0.000000000000E+00
R10 2021 01 01 18 15 00-6.518606096506E-05-0.000000000000E+00 4.968000000000E+05
    -9.324744628906E+03-1.354825973511E+00 9.313225746155E-10 0.000000000000E+00
     5.899666992188E+03-2.840854644775E+00-9.313225746155E-10-7.000000000000E+00
    -2.300925634766E+04-1.724519729614E-01 2.793967723846E-09 0.000000000000E+00
R13 2021 01 01 18 15 00-4.871841520071E-05-0.000000000000E+00 4.968900000000E+05
     1.472953564453E+04 1.125928878784E+00-2.793967723846E-09 0.000000000000E+00
     1.154661035156E+04 2.093326568604E+00 1.862645149231E-09-2.000000000000E+00
     1.731686767578E+04-2.350516319275E+00-0.000000000000E+00 0.000000000000E+00
R12 2021 01 01 18 45 00 1.931274309754E-04 3.637978807092E-12 4.986000000000E+05
     1.169906201172E+04-2.004041671753E-01-1.862645149231E-09 0.000000000000E+00
     2.222207958984E+04-6.117200851440E-01 1.862645149231E-09-1.000000000000E+00
    -4.527391601562E+03-3.498717308044E+00 2.793967723846E-09 0.000000000000E+00
R11 2021 01 01 18 45 00 5.004927515984E-06-9.094947017729E-13 4.986000000000E+05
    -7.481347656250E+01-1.388402938843E+00-0.000000000000E+00 4.000000000000E+00
     1.650200195312E+04-2.276490211487E+00 0.000000000000E+00 0.000000000000E+00
    -1.943880126953E+04-1.926789283752E+00 2.793967723846E-09 0.000000000000E+00
R01 2021 01 01 18 45 00 7.286202162504E-05 0.000000000000E+00 4.986000000000E+05
    -2.306627929688E+03-8.013353347778E-01-0.000000000000E+00 0.000000000000E+00
     2.066368066406E+04 1.859575271606E+00 1.862645149231E-09 1.000000000000E+00
    -1.477502734375E+04 2.727532386780E+00 3.725290298462E-09 0.000000000000E+00
R24 2021 01 01 18 45 00 2.620182931423E-05 1.818989403546E-12 4.986000000000E+05
     2.280654248047E+04-1.443228721619E+00-1.862645149231E-09 0.000000000000E+00
     4.488525878906E+03-1.330432891846E-01 0.000000000000E+00 2.000000000000E+00
     1.054815722656E+04 3.182722091675E+00-9.313225746155E-10 0.000000000000E+00
R02 2021 01 01 18 45 00 4.610912874341E-04 9.094947017729E-13 4.986000000000E+05
     1.050728417969E+04-1.484323501587E+00-0.000000000000E+00 0.000000000000E+00
     3.332450195312E+03 2.783934593201E+00-2.793967723846E-09-4.000000000000E+00
    -2.296629052734E+04-2.804660797119E-01 1.862645149231E-09 0.000000000000E+00
R17 2021 01 01 18 45 00 3.875186666846E-04 2.728484105319E-12 4.986000000000E+05
     2.430423291016E+04 9.109277725220E-01-9.313225746155E-10 0.000000000000E+00
    -3.990296875000E+03-2.508907318115E-01-2.793967723846E-09 4.000000000000E+00
    -6.699326171875E+03 3.442070007324E+00-0.000000000000E+00 0.000000000000E+00
R13 2021 01 01 18 45 00-4.871934652328E-05-0.000000000000E+00 4.986000000000E+05
     1.672730517578E+04 1.050278663635E+00-2.793967723846E-09 0.000000000000E+00
     1.466436621094E+04 1.356654167175E+00 2.793967723846E-09-2.000000000000E+00
     1.247052929688E+04-2.999266624451E+00 0.000000000000E+00 0.000000000000E+00
R23 2021 01 01 18 45 00 3.566527739167E-04 1.818989403546E-12 4.986000000000E+05
     1.282273730469E+04-2.781654357910E+00-1.862645149231E-09 0.000000000000E+00
     8.693054687500E+03-3.901386260986E-02 2.793967723846E-09 3.000000000000E+00
     2.026474511719E+04 1.776656150818E+00-9.313225746155E-10 0.000000000000E+00
R08 2021 01 01 18 45 00-5.660764873028E-05-0.000000000000E+00 4.986000000000E+05
    -1.132101660156E+04 6.795883178711E-02-0.000000000000E+00 0.000000000000E+00
     2.283946826172E+04 2.237510681152E-01 4.656612873077E-09 6.000000000000E+00
    -1.169836425781E+03 3.563848495483E+00 2.793967723846E-09 0.000000000000E+00
R12 2021 01 01 19 15 00 1.931330189109E-04 2.728484105319E-12 5.004000000000E+05
     1.079532421875E+04-8.246517181396E-01-9.313225746155E-10 0.000000000000E+00
     2.055664501953E+04-1.202131271362E+00 9.313225746155E-10-1.000000000000E+00
    -1.056887500000E+04-3.170437812805E+00 2.793967723846E-09 0.000000000000E+00
R13 2021 01 01 19 15 00-4.872027784586E-05-0.000000000000E+00 5.004000000000E+05
     1.835265625000E+04 7.130355834961E-01-1.862645149231E-09 0.000000000000E+00
     1.641402587891E+04 5.924215316772E-01 2.793967723846E-09-2.000000000000E+00
     6.659241210938E+03-3.415739059448E+00 9.313225746155E-10 0.000000000000E+00
R02 2021 01 01 19 15 00 4.610931500793E-04 9.094947017729E-13 5.004000000000E+05
     8.215198730469E+03-1.043503761292E+00-0.000000000000E+00 0.000000000000E+00
     8.508631347656E+03 2.918865203857E+00-9.313225746155E-10-4.000000000000E+00
    -2.257377294922E+04 7.135658264160E-01 2.793967723846E-09 0.000000000000E+00
R01 2021 01 01 19 15 00 7.286295294762E-05 0.000000000000E+00 5.004000000000E+05
    -3.270844238281E+03-2.911806106567E-01-0.000000000000E+00 0.000000000000E+00
     2.350018798828E+04 1.253709793091E+00 2.793967723846E-09 1.000000000000E+00
    -9.357585937500E+03 3.252776145935E+00 3.725290298462E-09 0.000000000000E+00
R11 2021 01 01 19 15 00 5.004927515984E-06-9.094947017729E-13 5.004000000000E+05
    -3.090916015625E+03-1.947864532471E+00 0.000000000000E+00 4.000000000000E+00
     1.231968750000E+04-2.322424888611E+00-0.000000000000E+00 0.000000000000E+00
    -2.210995361328E+04-1.021876335144E+00 2.793967723846E-09 0.000000000000E+00
